{
  "norad_id": 58631,
  "name": "STARLINK-31064",
  "history": [
    {
      "epoch": "2026-03-28T22:55:28.162848Z",
      "apogee_km": 483.76172108929677,
      "perigee_km": 482.26599020276626,
      "latitude_deg": 1.9097596109120673e-05,
      "longitude_deg": 151.85016388034592,
      "height_km": 482.78608285889817,
      "semi_major_axis_km": 6861.150855646031,
      "eccentricity": 0.000109,
      "inclination_deg": 43.0016,
      "raan_deg": 322.0857,
      "arg_perigee_deg": 270.3361,
      "mean_anomaly_deg": 89.7366,
      "mean_motion_rev_day": 15.27591769
    }
  ]
}