{"fetched_at":"2026-03-30T06:02:59Z","count":15439,"tles":[{"name":"STARLINK-31064","line1":"1 58631U 23203P   26087.95518707  .00004761  00000+0  18237-3 0  9999","line2":"2 58631  43.0016 322.0857 0001090 270.3361  89.7366 15.27591769127638","category":"Starlink"}]}